[{"OBJECT_NAME":"ICEYE-X63","OBJECT_ID":"2026-004K","EPOCH":"2026-03-09T23:23:40.922880","MEAN_MOTION":14.88075839,"ECCENTRICITY":0.00058015,"INCLINATION":97.8005,"RA_OF_ASC_NODE":69.1882,"ARG_OF_PERICENTER":95.6697,"MEAN_ANOMALY":264.5181,"EPHEMERIS_TYPE":0,"CLASSIFICATION_TYPE":"U","NORAD_CAT_ID":67372,"ELEMENT_SET_NO":999,"REV_AT_EPOCH":854,"BSTAR":0.00030090625,"MEAN_MOTION_DOT":2.713e-5,"MEAN_MOTION_DDOT":0},{"OBJECT_NAME":"CZ-6A DEB","OBJECT_ID":"2024-140EL","EPOCH":"2026-03-09T14:52:06.381120","MEAN_MOTION":14.82735055,"ECCENTRICITY":0.0060831,"INCLINATION":89.0047,"RA_OF_ASC_NODE":281.706,"ARG_OF_PERICENTER":204.7879,"MEAN_ANOMALY":155.0421,"EPHEMERIS_TYPE":0,"CLASSIFICATION_TYPE":"U","NORAD_CAT_ID":60761,"ELEMENT_SET_NO":999,"REV_AT_EPOCH":8441,"BSTAR":0.0031921,"MEAN_MOTION_DOT":0.00026705,"MEAN_MOTION_DDOT":0}]
